COMMENT,ORIGINATOR,NORAD_CAT_ID,OBJECT_NAME,OBJECT_TYPE,CLASSIFICATION_TYPE,INTLDES,EPOCH,EPOCH_MICROSECONDS,MEAN_MOTION,ECCENTRICITY,INCLINATION,RA_OF_ASC_NODE,ARG_OF_PERICENTER,MEAN_ANOMALY,EPHEMERIS_TYPE,ELEMENT_SET_NO,REV_AT_EPOCH,BSTAR,MEAN_MOTION_DOT,MEAN_MOTION_DDOT,FILE,TLE_LINE0,TLE_LINE1,TLE_LINE2,OBJECT_ID,OBJECT_NUMBER,SEMIMAJOR_AXIS,PERIOD,APOGEE,PERIGEE,DECAYED,date
GENERATED VIA SPACETRACK.ORG API,18 SPCS,52182,SPACEBEE-128,PAYLOAD,U,22033AB,2023/3/22 18:21,502944,15.37430763,0.0006988,97.3557,164.9979,123.7048,236.4863,0,999,5414,0.0018252,0.00067458,0,3867887,0 SPACEBEE-128,1 52182U 22033AB  23081.76514471  .00067458  00000-0  18252-2 0  9997,2 52182  97.3557 164.9979 0006988 123.7048 236.4863 15.37430763 54142,2022-033AB,52182,6831.847,93.663,458.486,448.938,1,
GENERATED VIA SPACETRACK.ORG API,18 SPCS,52182,SPACEBEE-128,PAYLOAD,U,22033AB,2023/3/22 18:21,502944,15.37430763,0.0006988,97.3557,164.9979,123.7048,236.4863,0,999,5416,0.0018252,0.00067458,0,3868201,0 SPACEBEE-128,1 52182U 22033AB  23081.76514471  .00067458  00000-0  18252-2 0  9997,2 52182  97.3557 164.9979 0006988 123.7048 236.4863 15.37430763 54164,2022-033AB,52182,6831.847,93.663,458.486,448.938,1,
GENERATED VIA SPACETRACK.ORG API,18 SPCS,52182,SPACEBEE-128,PAYLOAD,U,22033AB,2023/3/23 6:51,816032,15.37496486,0.0007036,97.3555,165.519,122.6315,237.561,0,999,5424,0.0013671,0.00050503,0,3868494,0 SPACEBEE-128,1 52182U 22033AB  23082.28581963  .00050503  00000-0  13671-2 0  9998,2 52182  97.3555 165.5190 0007036 122.6315 237.5610 15.37496486 54249,2022-033AB,52182,6831.652,93.659,458.324,448.711,1,
GENERATED VIA SPACETRACK.ORG API,18 SPCS,52182,SPACEBEE-128,PAYLOAD,U,22033AB,2023/3/23 19:21,108224,15.37581908,0.0006932,97.3549,166.0405,120.7333,239.4595,0,999,5430,0.00247,0.00092057,0,3868765,0 SPACEBEE-128,1 52182U 22033AB  23082.80647116  .00092057  00000-0  24700-2 0  9994,2 52182  97.3549 166.0405 0006932 120.7333 239.4595 15.37581908 54304,2022-033AB,52182,6831.399,93.654,458,448.529,1,
GENERATED VIA SPACETRACK.ORG API,18 SPCS,52182,SPACEBEE-128,PAYLOAD,U,22033AB,2023/3/24 4:43,575392,15.37701938,0.0006882,97.3547,166.4313,119.5233,240.6699,0,999,5436,0.0063398,0.0024201,0,3869171,0 SPACEBEE-128,1 52182U 22033AB  23083.19693953  .00242010  00000-0  63398-2 0  9999,2 52182  97.3547 166.4313 0006882 119.5233 240.6699 15.37701938 54365,2022-033AB,52182,6831.044,93.646,457.61,448.208,1,
GENERATED VIA SPACETRACK.ORG API,18 SPCS,52182,SPACEBEE-128,PAYLOAD,U,22033AB,2023/3/24 4:43,575392,15.37701938,0.0006882,97.3547,166.4313,119.5233,240.6699,0,999,5438,0.0063398,0.0024201,0,3869846,0 SPACEBEE-128,1 52182U 22033AB  23083.19693953  .00242010  00000-0  63398-2 0  9999,2 52182  97.3547 166.4313 0006882 119.5233 240.6699 15.37701938 54387,2022-033AB,52182,6831.044,93.646,457.61,448.208,1,
GENERATED VIA SPACETRACK.ORG API,18 SPCS,52182,SPACEBEE-128,PAYLOAD,U,22033AB,2023/3/24 18:46,30880,15.37802362,0.0006779,97.3543,167.0181,117.1553,243.0384,0,999,5445,0.0026596,0.00099937,0,3870062,0 SPACEBEE-128,1 52182U 22033AB  23083.78259295  .00099937  00000-0  26596-2 0  9998,2 52182  97.3543 167.0181 0006779 117.1553 243.0384 15.37802362 54456,2022-033AB,52182,6830.746,93.64,457.242,447.981,1,
GENERATED VIA SPACETRACK.ORG API,18 SPCS,52182,SPACEBEE-128,PAYLOAD,U,22033AB,2023/3/24 18:46,30880,15.37802362,0.0006779,97.3543,167.0181,117.1553,243.0384,0,999,5447,0.0026596,0.00099937,0,3870109,0 SPACEBEE-128,1 52182U 22033AB  23083.78259295  .00099937  00000-0  26596-2 0  9998,2 52182  97.3543 167.0181 0006779 117.1553 243.0384 15.37802362 54478,2022-033AB,52182,6830.746,93.64,457.242,447.981,1,
GENERATED VIA SPACETRACK.ORG API,18 SPCS,52182,SPACEBEE-128,PAYLOAD,U,22033AB,2023/3/25 4:09,65728,15.37851707,0.0006863,97.3542,167.4092,116.428,243.767,0,999,5451,0.0020134,0.00075518,0,3870451,0 SPACEBEE-128,1 52182U 22033AB  23084.17301002  .00075518  00000-0  20134-2 0  9997,2 52182  97.3542 167.4092 0006863 116.4280 243.7670 15.37851707 54512,2022-033AB,52182,6830.6,93.637,457.153,447.777,1,
GENERATED VIA SPACETRACK.ORG API,18 SPCS,52182,SPACEBEE-128,PAYLOAD,U,22033AB,2023/3/25 18:12,711328,15.37936501,0.0006846,97.3538,167.9962,113.8732,246.3231,0,999,5462,0.002119,0.00079745,0,3871104,0 SPACEBEE-128,1 52182U 22033AB  23084.75860777  .00079745  00000-0  21190-2 0  9999,2 52182  97.3538 167.9962 0006846 113.8732 246.3231 15.37936501 54622,2022-033AB,52182,6830.349,93.632,456.89,447.538,1,
GENERATED VIA SPACETRACK.ORG API,18 SPCS,52182,SPACEBEE-128,PAYLOAD,U,22033AB,2023/3/26 5:08,941600,15.37998556,0.0006807,97.3538,168.4522,112.8096,247.3868,0,999,5467,0.0018011,0.000678,0,3871403,0 SPACEBEE-128,1 52182U 22033AB  23085.21405025  .00067800  00000-0  18011-2 0  9999,2 52182  97.3538 168.4522 0006807 112.8096 247.3868 15.37998556 54679,2022-033AB,52182,6830.165,93.628,456.68,447.381,1,
GENERATED VIA SPACETRACK.ORG API,18 SPCS,52182,SPACEBEE-128,PAYLOAD,U,22033AB,2023/3/26 17:37,973472,15.38055601,0.0006653,97.3537,168.9743,110.8183,249.3775,0,999,5475,0.0017139,0.00064604,0,3871931,0 SPACEBEE-128,1 52182U 22033AB  23085.73453673  .00064604  00000-0  17139-2 0  9997,2 52182  97.3537 168.9743 0006653 110.8183 249.3775 15.38055601 54756,2022-033AB,52182,6829.997,93.625,456.406,447.318,1,
GENERATED VIA SPACETRACK.ORG API,18 SPCS,52182,SPACEBEE-128,PAYLOAD,U,22033AB,2023/3/26 17:37,973472,15.38055601,0.0006653,97.3537,168.9743,110.8183,249.3775,0,999,5477,0.0017139,0.00064604,0,3871964,0 SPACEBEE-128,1 52182U 22033AB  23085.73453673  .00064604  00000-0  17139-2 0  9997,2 52182  97.3537 168.9743 0006653 110.8183 249.3775 15.38055601 54778,2022-033AB,52182,6829.997,93.625,456.406,447.318,1,
GENERATED VIA SPACETRACK.ORG API,18 SPCS,52182,SPACEBEE-128,PAYLOAD,U,22033AB,2023/3/27 10:48,589504,15.38145367,0.0006603,97.3538,169.6915,108.6852,251.511,0,999,5488,0.0017834,0.00067447,0,3872569,0 SPACEBEE-128,1 52182U 22033AB  23086.45016886  .00067447  00000-0  17834-2 0  9998,2 52182  97.3538 169.6915 0006603 108.6852 251.5110 15.38145367 54880,2022-033AB,52182,6829.731,93.619,456.105,447.086,1,
GENERATED VIA SPACETRACK.ORG API,18 SPCS,52182,SPACEBEE-128,PAYLOAD,U,22033AB,2023/3/27 18:36,270880,15.38184389,0.0006552,97.3539,170.0175,107.4089,252.7873,0,999,5491,0.0015479,0.00058535,0,3872889,0 SPACEBEE-128,1 52182U 22033AB  23086.77544295  .00058535  00000-0  15479-2 0  9994,2 52182  97.3539 170.0175 0006552 107.4089 252.7873 15.38184389 54917,2022-033AB,52182,6829.615,93.617,455.955,447.006,1,
GENERATED VIA SPACETRACK.ORG API,18 SPCS,52182,SPACEBEE-128,PAYLOAD,U,22033AB,2023/3/27 18:36,270880,15.38184389,0.0006552,97.3539,170.0175,107.4089,252.7873,0,999,5493,0.0015479,0.00058535,0,3872915,0 SPACEBEE-128,1 52182U 22033AB  23086.77544295  .00058535  00000-0  15479-2 0  9994,2 52182  97.3539 170.0175 0006552 107.4089 252.7873 15.38184389 54939,2022-033AB,52182,6829.615,93.617,455.955,447.006,1,
GENERATED VIA SPACETRACK.ORG API,18 SPCS,52182,SPACEBEE-128,PAYLOAD,U,22033AB,2023/3/28 5:32,22016,15.38249596,0.0006552,97.3541,170.4738,106.3469,253.8497,0,999,5500,0.0016083,0.00060971,0,3873565,0 SPACEBEE-128,1 52182U 22033AB  23087.23081044  .00060971  00000-0  16083-2 0  9993,2 52182  97.3541 170.4738 0006552 106.3469 253.8497 15.38249596 55006,2022-033AB,52182,6829.422,93.613,455.762,446.813,1,
GENERATED VIA SPACETRACK.ORG API,18 SPCS,52182,SPACEBEE-128,PAYLOAD,U,22033AB,2023/3/28 16:28,294848,15.38307434,0.0006496,97.3538,170.9306,103.8595,256.3373,0,999,5505,0.0017609,0.0006694,0,3873526,0 SPACEBEE-128,1 52182U 22033AB  23087.68616082  .00066940  00000-0  17609-2 0  9995,2 52182  97.3538 170.9306 0006496 103.8595 256.3373 15.38307434 55059,2022-033AB,52182,6829.251,93.609,455.552,446.68,1,
GENERATED VIA SPACETRACK.ORG API,18 SPCS,52182,SPACEBEE-128,PAYLOAD,U,22033AB,2023/3/28 16:28,294848,15.38307434,0.0006496,97.3538,170.9306,103.8595,256.3373,0,999,5507,0.0017609,0.0006694,0,3873921,0 SPACEBEE-128,1 52182U 22033AB  23087.68616082  .00066940  00000-0  17609-2 0  9995,2 52182  97.3538 170.9306 0006496 103.8595 256.3373 15.38307434 55071,2022-033AB,52182,6829.251,93.609,455.552,446.68,1,
GENERATED VIA SPACETRACK.ORG API,18 SPCS,52182,SPACEBEE-128,PAYLOAD,U,22033AB,2023/3/29 12:45,940448,15.38432983,0.0006366,97.3539,171.7784,100.9853,259.2109,0,999,5518,0.0019606,0.0007492,0,3874452,0 SPACEBEE-128,1 52182U 22033AB  23088.53175857  .00074920  00000-0  19606-2 0  9996,2 52182  97.3539 171.7784 0006366 100.9853 259.2109 15.38432983 55181,2022-033AB,52182,6828.88,93.602,455.092,446.397,1,
GENERATED VIA SPACETRACK.ORG API,18 SPCS,52182,SPACEBEE-128,PAYLOAD,U,22033AB,2023/3/29 12:45,940448,15.38432983,0.0006366,97.3539,171.7784,100.9853,259.2109,0,999,5520,0.0019606,0.0007492,0,3874492,0 SPACEBEE-128,1 52182U 22033AB  23088.53175857  .00074920  00000-0  19606-2 0  9996,2 52182  97.3539 171.7784 0006366 100.9853 259.2109 15.38432983 55204,2022-033AB,52182,6828.88,93.602,455.092,446.397,1,
GENERATED VIA SPACETRACK.ORG API,18 SPCS,52182,SPACEBEE-128,PAYLOAD,U,22033AB,2023/3/29 19:00,655232,15.38474046,0.0006254,97.3538,172.0392,99.4806,260.7146,0,999,5524,0.0019254,0.00073658,0,3874790,0 SPACEBEE-128,1 52182U 22033AB  23088.79192888  .00073658  00000-0  19254-2 0  9993,2 52182  97.3538 172.0392 0006254  99.4806 260.7146 15.38474046 55246,2022-033AB,52182,6828.758,93.599,454.894,446.352,1,
GENERATED VIA SPACETRACK.ORG API,18 SPCS,52182,SPACEBEE-128,PAYLOAD,U,22033AB,2023/3/30 18:25,646272,15.38626715,0.0006238,97.354,173.0179,97.1956,262.9999,0,999,5537,0.0022253,0.00085701,0,3875695,0 SPACEBEE-128,1 52182U 22033AB  23089.76750748  .00085701  00000-0  22253-2 0  9991,2 52182  97.3540 173.0179 0006238  97.1956 262.9999 15.38626715 55372,2022-033AB,52182,6828.306,93.59,454.431,445.912,1,
